[{"OBJECT_NAME":"PIESAT A","OBJECT_ID":"2023-047A","EPOCH":"2026-03-09T13:45:37.273248","MEAN_MOTION":15.14302818,"ECCENTRICITY":0.0002367,"INCLINATION":97.5034,"RA_OF_ASC_NODE":257.1452,"ARG_OF_PERICENTER":89.923,"MEAN_ANOMALY":270.2273,"EPHEMERIS_TYPE":0,"CLASSIFICATION_TYPE":"U","NORAD_CAT_ID":56153,"ELEMENT_SET_NO":999,"REV_AT_EPOCH":16272,"BSTAR":0.00032318,"MEAN_MOTION_DOT":5.852e-5,"MEAN_MOTION_DDOT":0},{"OBJECT_NAME":"PIESAT C","OBJECT_ID":"2023-047C","EPOCH":"2026-03-09T13:45:37.301760","MEAN_MOTION":15.14301617,"ECCENTRICITY":0.0001962,"INCLINATION":97.5027,"RA_OF_ASC_NODE":257.1489,"ARG_OF_PERICENTER":78.3327,"MEAN_ANOMALY":281.8125,"EPHEMERIS_TYPE":0,"CLASSIFICATION_TYPE":"U","NORAD_CAT_ID":56155,"ELEMENT_SET_NO":999,"REV_AT_EPOCH":16272,"BSTAR":0.00023896,"MEAN_MOTION_DOT":4.309e-5,"MEAN_MOTION_DDOT":0}]
